CCSDS_OMM_VERS = 2.0
CREATION_DATE  = 
ORIGINATOR     = 

OBJECT_NAME    = SL-14 R/B
OBJECT_ID      = 1986-046B
CENTER_NAME    = EARTH
REF_FRAME      = TEME
TIME_SYSTEM    = UTC
MEAN_ELEMENT_THEORY = SGP/SGP4

EPOCH          = 2026-02-08T05:43:02.460288
MEAN_MOTION    = 14.85561789
ECCENTRICITY   = .00222483
INCLINATION    = 82.4816
RA_OF_ASC_NODE = 108.0138
ARG_OF_PERICENTER = 328.6757
MEAN_ANOMALY   = 31.3132

EPHEMERIS_TYPE = 0
CLASSIFICATION_TYPE = U
NORAD_CAT_ID   = 16792
ELEMENT_SET_NO = 999
REV_AT_EPOCH   = 12203
BSTAR          = .59173602E-4
MEAN_MOTION_DOT = .537E-5
MEAN_MOTION_DDOT = 0

CCSDS_OMM_VERS = 2.0
CREATION_DATE  = 
ORIGINATOR     = 

OBJECT_NAME    = SL-14 R/B
OBJECT_ID      = 1986-055B
CENTER_NAME    = EARTH
REF_FRAME      = TEME
TIME_SYSTEM    = UTC
MEAN_ELEMENT_THEORY = SGP/SGP4

EPOCH          = 2026-02-08T07:04:46.527744
MEAN_MOTION    = 14.85611704
ECCENTRICITY   = .00203234
INCLINATION    = 82.5233
RA_OF_ASC_NODE = 154.2936
ARG_OF_PERICENTER = 71.1552
MEAN_ANOMALY   = 311.8276

EPHEMERIS_TYPE = 0
CLASSIFICATION_TYPE = U
NORAD_CAT_ID   = 16882
ELEMENT_SET_NO = 999
REV_AT_EPOCH   = 11500
BSTAR          = .76630407E-4
MEAN_MOTION_DOT = .69E-5
MEAN_MOTION_DDOT = 0

CCSDS_OMM_VERS = 2.0
CREATION_DATE  = 
ORIGINATOR     = 

OBJECT_NAME    = AJISAI (EGS)
OBJECT_ID      = 1986-061A
CENTER_NAME    = EARTH
REF_FRAME      = TEME
TIME_SYSTEM    = UTC
MEAN_ELEMENT_THEORY = SGP/SGP4

EPOCH          = 2026-02-08T07:25:51.648384
MEAN_MOTION    = 12.44515315
ECCENTRICITY   = .00112392
INCLINATION    = 50.0072
RA_OF_ASC_NODE = 183.6908
ARG_OF_PERICENTER = 211.3446
MEAN_ANOMALY   = 157.3561

EPHEMERIS_TYPE = 0
CLASSIFICATION_TYPE = U
NORAD_CAT_ID   = 16908
ELEMENT_SET_NO = 999
REV_AT_EPOCH   = 46434
BSTAR          = .77520367E-4
MEAN_MOTION_DOT = -.86E-6
MEAN_MOTION_DDOT = 0

CCSDS_OMM_VERS = 2.0
CREATION_DATE  = 
ORIGINATOR     = 

OBJECT_NAME    = COSMOS 1812
OBJECT_ID      = 1987-003A
CENTER_NAME    = EARTH
REF_FRAME      = TEME
TIME_SYSTEM    = UTC
MEAN_ELEMENT_THEORY = SGP/SGP4

EPOCH          = 2026-02-08T05:42:34.334496
MEAN_MOTION    = 15.94825433
ECCENTRICITY   = .00010954
INCLINATION    = 82.4779
RA_OF_ASC_NODE = 229.0171
ARG_OF_PERICENTER = 327.1223
MEAN_ANOMALY   = 32.9984

EPHEMERIS_TYPE = 0
CLASSIFICATION_TYPE = U
NORAD_CAT_ID   = 17295
ELEMENT_SET_NO = 999
REV_AT_EPOCH   = 13975
BSTAR          = .7338465E-3
MEAN_MOTION_DOT = .280151E-2
MEAN_MOTION_DDOT = .28944698E-4

CCSDS_OMM_VERS = 2.0
CREATION_DATE  = 
ORIGINATOR     = 

OBJECT_NAME    = SL-14 R/B
OBJECT_ID      = 1987-024B
CENTER_NAME    = EARTH
REF_FRAME      = TEME
TIME_SYSTEM    = UTC
MEAN_ELEMENT_THEORY = SGP/SGP4

EPOCH          = 2026-02-08T06:46:36.533856
MEAN_MOTION    = 14.86103830
ECCENTRICITY   = .00182234
INCLINATION    = 82.5292
RA_OF_ASC_NODE = 120.4026
ARG_OF_PERICENTER = 3.1420
MEAN_ANOMALY   = 356.9907

EPHEMERIS_TYPE = 0
CLASSIFICATION_TYPE = U
NORAD_CAT_ID   = 17567
ELEMENT_SET_NO = 999
REV_AT_EPOCH   = 8376
BSTAR          = .62696541E-4
MEAN_MOTION_DOT = .575E-5
MEAN_MOTION_DDOT = 0

CCSDS_OMM_VERS = 2.0
CREATION_DATE  = 
ORIGINATOR     = 

OBJECT_NAME    = COSMOS 1833
OBJECT_ID      = 1987-027A
CENTER_NAME    = EARTH
REF_FRAME      = TEME
TIME_SYSTEM    = UTC
MEAN_ELEMENT_THEORY = SGP/SGP4

EPOCH          = 2026-02-08T06:29:10.289472
MEAN_MOTION    = 14.13056395
ECCENTRICITY   = .00248889
INCLINATION    = 70.9213
RA_OF_ASC_NODE = 27.8473
ARG_OF_PERICENTER = 253.9257
MEAN_ANOMALY   = 105.9123

EPHEMERIS_TYPE = 0
CLASSIFICATION_TYPE = U
NORAD_CAT_ID   = 17589
ELEMENT_SET_NO = 999
REV_AT_EPOCH   = 616
BSTAR          = .55214541E-4
MEAN_MOTION_DOT = .55E-6
MEAN_MOTION_DDOT = 0

CCSDS_OMM_VERS = 2.0
CREATION_DATE  = 
ORIGINATOR     = 

OBJECT_NAME    = SL-16 R/B
OBJECT_ID      = 1987-027B
CENTER_NAME    = EARTH
REF_FRAME      = TEME
TIME_SYSTEM    = UTC
MEAN_ELEMENT_THEORY = SGP/SGP4

EPOCH          = 2026-02-08T06:12:17.384256
MEAN_MOTION    = 14.17163520
ECCENTRICITY   = .00051138
INCLINATION    = 71.0050
RA_OF_ASC_NODE = 338.5119
ARG_OF_PERICENTER = 193.9428
MEAN_ANOMALY   = 166.1555

EPHEMERIS_TYPE = 0
CLASSIFICATION_TYPE = U
NORAD_CAT_ID   = 17590
ELEMENT_SET_NO = 999
REV_AT_EPOCH   = 1117
BSTAR          = -.65451132E-4
MEAN_MOTION_DOT = -.18E-5
MEAN_MOTION_DDOT = 0

CCSDS_OMM_VERS = 2.0
CREATION_DATE  = 
ORIGINATOR     = 

OBJECT_NAME    = SL-14 R/B
OBJECT_ID      = 1987-038B
CENTER_NAME    = EARTH
REF_FRAME      = TEME
TIME_SYSTEM    = UTC
MEAN_ELEMENT_THEORY = SGP/SGP4

EPOCH          = 2026-02-08T06:17:32.137728
MEAN_MOTION    = 14.85340160
ECCENTRICITY   = .00176975
INCLINATION    = 82.5042
RA_OF_ASC_NODE = 324.5227
ARG_OF_PERICENTER = 261.5737
MEAN_ANOMALY   = 98.3473

EPHEMERIS_TYPE = 0
CLASSIFICATION_TYPE = U
NORAD_CAT_ID   = 17912
ELEMENT_SET_NO = 999
REV_AT_EPOCH   = 7486
BSTAR          = .74721575E-4
MEAN_MOTION_DOT = .668E-5
MEAN_MOTION_DDOT = 0

CCSDS_OMM_VERS = 2.0
CREATION_DATE  = 
ORIGINATOR     = 

OBJECT_NAME    = COSMOS 1844
OBJECT_ID      = 1987-041A
CENTER_NAME    = EARTH
REF_FRAME      = TEME
TIME_SYSTEM    = UTC
MEAN_ELEMENT_THEORY = SGP/SGP4

EPOCH          = 2026-02-08T06:22:49.128096
MEAN_MOTION    = 14.14540173
ECCENTRICITY   = .00288391
INCLINATION    = 70.8981
RA_OF_ASC_NODE = 96.2417
ARG_OF_PERICENTER = 65.1387
MEAN_ANOMALY   = 295.2728

EPHEMERIS_TYPE = 0
CLASSIFICATION_TYPE = U
NORAD_CAT_ID   = 17973
ELEMENT_SET_NO = 999
REV_AT_EPOCH   = 99942
BSTAR          = .22566843E-3
MEAN_MOTION_DOT = .387E-5
MEAN_MOTION_DDOT = 0

CCSDS_OMM_VERS = 2.0
CREATION_DATE  = 
ORIGINATOR     = 

OBJECT_NAME    = SL-14 R/B
OBJECT_ID      = 1987-055B
CENTER_NAME    = EARTH
REF_FRAME      = TEME
TIME_SYSTEM    = UTC
MEAN_ELEMENT_THEORY = SGP/SGP4

EPOCH          = 2026-02-08T01:00:43.695360
MEAN_MOTION    = 14.85592200
ECCENTRICITY   = .00221917
INCLINATION    = 82.4995
RA_OF_ASC_NODE = 16.9692
ARG_OF_PERICENTER = 110.0636
MEAN_ANOMALY   = 250.2972

EPHEMERIS_TYPE = 0
CLASSIFICATION_TYPE = U
NORAD_CAT_ID   = 18153
ELEMENT_SET_NO = 999
REV_AT_EPOCH   = 6553
BSTAR          = .72816377E-4
MEAN_MOTION_DOT = .657E-5
MEAN_MOTION_DDOT = 0

CCSDS_OMM_VERS = 2.0
CREATION_DATE  = 
ORIGINATOR     = 

OBJECT_NAME    = COSMOS 1867
OBJECT_ID      = 1987-060A
CENTER_NAME    = EARTH
REF_FRAME      = TEME
TIME_SYSTEM    = UTC
MEAN_ELEMENT_THEORY = SGP/SGP4

EPOCH          = 2026-02-08T05:44:17.395872
MEAN_MOTION    = 14.31498197
ECCENTRICITY   = .00141025
INCLINATION    = 65.0110
RA_OF_ASC_NODE = 29.1781
ARG_OF_PERICENTER = 276.4066
MEAN_ANOMALY   = 83.5413

EPHEMERIS_TYPE = 0
CLASSIFICATION_TYPE = U
NORAD_CAT_ID   = 18187
ELEMENT_SET_NO = 999
REV_AT_EPOCH   = 1572
BSTAR          = .37737741E-4
MEAN_MOTION_DOT = 0
MEAN_MOTION_DDOT = 0

CCSDS_OMM_VERS = 2.0
CREATION_DATE  = 
ORIGINATOR     = 

OBJECT_NAME    = SL-14 R/B
OBJECT_ID      = 1988-001B
CENTER_NAME    = EARTH
REF_FRAME      = TEME
TIME_SYSTEM    = UTC
MEAN_ELEMENT_THEORY = SGP/SGP4

EPOCH          = 2026-02-07T23:14:01.891680
MEAN_MOTION    = 14.85491904
ECCENTRICITY   = .0017547
INCLINATION    = 82.5106
RA_OF_ASC_NODE = 223.3157
ARG_OF_PERICENTER = 341.3668
MEAN_ANOMALY   = 18.6903

EPHEMERIS_TYPE = 0
CLASSIFICATION_TYPE = U
NORAD_CAT_ID   = 18749
ELEMENT_SET_NO = 999
REV_AT_EPOCH   = 3761
BSTAR          = .64932E-4
MEAN_MOTION_DOT = .586E-5
MEAN_MOTION_DDOT = 0

