SL-14 R/B               
1 16792U 86046B   26039.23822292  .00000537  00000+0  59174-4 0  9993
2 16792  82.4816 108.0138 0022248 328.6757  31.3132 14.85561789122038
SL-14 R/B               
1 16882U 86055B   26039.29498296  .00000690  00000+0  76630-4 0  9998
2 16882  82.5233 154.2936 0020323  71.1552 311.8276 14.85611704115003
AJISAI (EGS)            
1 16908U 86061A   26039.30962556 -.00000086  00000+0  77520-4 0  9990
2 16908  50.0072 183.6908 0011239 211.3446 157.3561 12.44515315464342
COSMOS 1812             
1 17295U 87003A   26039.23789739  .00280151  28945-4  73385-3 0  9998
2 17295  82.4779 229.0171 0001095 327.1223  32.9984 15.94825433139754
SL-14 R/B               
1 17567U 87024B   26039.28236729  .00000575  00000+0  62697-4 0  9996
2 17567  82.5292 120.4026 0018223   3.1420 356.9907 14.86103830 83764
COSMOS 1833             
1 17589U 87027A   26039.27025798  .00000055  00000+0  55215-4 0  9995
2 17589  70.9213  27.8473 0024888 253.9257 105.9123 14.13056395  6169
SL-16 R/B               
1 17590U 87027B   26039.25853454 -.00000180  00000+0 -65451-4 0  9997
2 17590  71.0050 338.5119 0005113 193.9428 166.1555 14.17163520 11172
SL-14 R/B               
1 17912U 87038B   26039.26217752  .00000668  00000+0  74722-4 0  9993
2 17912  82.5042 324.5227 0017697 261.5737  98.3473 14.85340160 74860
COSMOS 1844             
1 17973U 87041A   26039.26584639  .00000387  00000+0  22567-3 0  9992
2 17973  70.8981  96.2417 0028839  65.1387 295.2728 14.14540173999429
SL-14 R/B               
1 18153U 87055B   26039.04217240  .00000657  00000+0  72816-4 0  9998
2 18153  82.4995  16.9692 0022191 110.0636 250.2972 14.85592200 65534
COSMOS 1867             
1 18187U 87060A   26039.23909023  .00000000  00000+0  37738-4 0  9995
2 18187  65.0110  29.1781 0014102 276.4066  83.5413 14.31498197 15723
SL-14 R/B               
1 18749U 88001B   26038.96807745  .00000586  00000+0  64932-4 0  9997
2 18749  82.5106 223.3157 0017547 341.3668  18.6903 14.85491904 37610
